ORBCOMM FM20 [+]        
1 25416U 98046D   23344.25525803  .00000755  00000+0  31390-3 0  9996
2 25416  44.9956 283.6845 0002067 316.5459  43.5225 14.34680848324502
ORBCOMM FM16 [-]        
1 25417U 98046E   23346.60307967  .00000934  00000+0  37080-3 0  9998
2 25417  44.9950 269.3854 0004629  22.1718 337.9328 14.35463459324762
ORBCOMM FM15 [-]        
1 25418U 98046F   23345.48842293  .00000950  00000+0  37794-3 0  9990
2 25418  44.9986 278.3703 0004249  15.8862 344.2118 14.35215097324785
ORBCOMM FM14 [-]        
1 25419U 98046G   23345.96926175  .00000885  00000+0  35459-3 0  9999
2 25419  44.9977 275.3890 0003354   0.0650 122.4965 14.35335496324633
ORBCOMM FM21 [-]        
1 25475U 98053A   23344.47796732  .00000672  00000+0  28433-3 0  9996
2 25475  45.0105  10.6768 0002357 275.5051  84.5527 14.34742801317512
ORBCOMM FM22 [-]        
1 25476U 98053B   23345.96644234  .00000820  00000+0  33346-3 0  9995
2 25476  45.0104   1.4847 0003955 301.3884  58.6577 14.35150503317717
ORBCOMM FM23 [-]        
1 25477U 98053C   23345.97062732  .00000722  00000+0  30193-3 0  9992
2 25477  45.0108   6.0882 0003301 293.1038  66.9461 14.34738702317879
